{
"type": "FeatureCollection",
"name": "santa_fe",
"crs": { "type": "name", "properties": { "name": "urn:ogc:def:crs:OGC:1.3:CRS84" } },
"features": [
{ "type": "Feature", "properties": { "id": "82", "nombre": "Santa Fe", "nombre_completo": "Provincia de Santa Fe", "fuente": "IGN", "categoria": "Provincia", "iso_id": "AR-S", "iso_nombre": "Santa Fe" }, "geometry": { "type": "Polygon", "coordinates": [ [ [ -61.712045, -27.998552 ], [ -58.884005, -28.000001 ], [ -58.893694, -28.035274 ], [ -58.880822, -28.066825 ], [ -58.945113, -28.133774 ], [ -59.062413, -28.128109 ], [ -59.087635, -28.171772 ], [ -59.086207, -28.199493 ], [ -59.107868, -28.222766 ], [ -59.103458, -28.328816 ], [ -59.076213, -28.365341 ], [ -59.085977, -28.435966 ], [ -59.048857, -28.493311 ], [ -59.100008, -28.576399 ], [ -59.105013, -28.633937 ], [ -59.078601, -28.667487 ], [ -59.160454, -28.794789 ], [ -59.158075, -28.877356 ], [ -59.210899, -28.977531 ], [ -59.199715, -29.031545 ], [ -59.257536, -29.089604 ], [ -59.346766, -29.11435 ], [ -59.407814, -29.221376 ], [ -59.500633, -29.243518 ], [ -59.519788, -29.343189 ], [ -59.604283, -29.394743 ], [ -59.579953, -29.459848 ], [ -59.590185, -29.569779 ], [ -59.613979, -29.668765 ], [ -59.617549, -29.77584 ], [ -59.659665, -29.843179 ], [ -59.6047, -29.902666 ], [ -59.588911, -29.976252 ], [ -59.56639, -30.008076 ], [ -59.616121, -30.11301 ], [ -59.636584, -30.237456 ], [ -59.712013, -30.276241 ], [ -59.693453, -30.313123 ], [ -59.666803, -30.327161 ], [ -59.703439, -30.44261 ], [ -59.65033, -30.500977 ], [ -59.645856, -30.597037 ], [ -59.678406, -30.646912 ], [ -59.633301, -30.713928 ], [ -59.699394, -30.769072 ], [ -59.704867, -30.817376 ], [ -59.734848, -30.876624 ], [ -59.818176, -30.942505 ], [ -59.87793, -31.056213 ], [ -59.925443, -31.105052 ], [ -59.963379, -31.119873 ], [ -60.002686, -31.238586 ], [ -60.105591, -31.289917 ], [ -60.086792, -31.346985 ], [ -60.138428, -31.413391 ], [ -60.143494, -31.443604 ], [ -60.212354, -31.467816 ], [ -60.244001, -31.530395 ], [ -60.332807, -31.547156 ], [ -60.330665, -31.608546 ], [ -60.46759, -31.698303 ], [ -60.584078, -31.708484 ], [ -60.638794, -31.742004 ], [ -60.638567, -31.787482 ], [ -60.675781, -31.811707 ], [ -60.657227, -31.911316 ], [ -60.721849, -31.966179 ], [ -60.720659, -31.985215 ], [ -60.684387, -32.012085 ], [ -60.656006, -32.067078 ], [ -60.700382, -32.149769 ], [ -60.672607, -32.232605 ], [ -60.679018, -32.319529 ], [ -60.718993, -32.334044 ], [ -60.711617, -32.393055 ], [ -60.723816, -32.456116 ], [ -60.776184, -32.507019 ], [ -60.747375, -32.554321 ], [ -60.752075, -32.622192 ], [ -60.723514, -32.671689 ], [ -60.716003, -32.773621 ], [ -60.658875, -32.831177 ], [ -60.681398, -32.871564 ], [ -60.676208, -32.899597 ], [ -60.620246, -32.947945 ], [ -60.605493, -32.999817 ], [ -60.493408, -33.131409 ], [ -60.392055, -33.188984 ], [ -60.335662, -33.176849 ], [ -60.303063, -33.183511 ], [ -60.284504, -33.207068 ], [ -60.297829, -33.242284 ], [ -60.252392, -33.275415 ], [ -60.272714, -33.263863 ], [ -60.264612, -33.281316 ], [ -60.323963, -33.350753 ], [ -60.335288, -33.412105 ], [ -60.410217, -33.467886 ], [ -60.423841, -33.528429 ], [ -60.413831, -33.545012 ], [ -60.45738, -33.58236 ], [ -60.462817, -33.634187 ], [ -60.556949, -33.646598 ], [ -60.61992, -33.628344 ], [ -60.684582, -33.585157 ], [ -60.781951, -33.578969 ], [ -60.818249, -33.540293 ], [ -60.87909, -33.554734 ], [ -60.918108, -33.58837 ], [ -60.934033, -33.654727 ], [ -61.719753, -34.385555 ], [ -62.883909, -34.38655 ], [ -61.923249, -33.119581 ], [ -61.888748, -33.10599 ], [ -61.787668, -33.006202 ], [ -61.791, -32.958407 ], [ -61.771552, -32.901465 ], [ -61.792243, -32.877228 ], [ -61.77769, -32.830402 ], [ -61.795699, -32.773966 ], [ -61.828402, -32.754511 ], [ -61.857988, -32.694552 ], [ -61.907415, -32.695747 ], [ -61.946626, -32.678481 ], [ -61.946168, -32.651026 ], [ -61.889495, -32.610798 ], [ -61.891829, -32.590534 ], [ -61.920591, -32.594278 ], [ -61.926381, -32.584034 ], [ -61.902477, -32.568619 ], [ -61.905052, -32.552546 ], [ -61.930573, -32.544506 ], [ -61.912075, -32.526474 ], [ -61.914512, -32.494664 ], [ -62.011635, -32.347328 ], [ -62.037889, -32.262914 ], [ -62.145346, -32.193479 ], [ -62.178877, -32.159422 ], [ -62.19678, -32.11477 ], [ -62.167797, -31.98601 ], [ -62.188893, -31.922314 ], [ -62.22349, -31.883934 ], [ -62.218089, -31.740571 ], [ -62.241683, -31.699677 ], [ -62.123495, -31.605408 ], [ -61.842175, -30.744316 ], [ -62.130653, -30.480433 ], [ -61.712045, -27.998552 ] ] ] } }
]
}
